# Nearby stars and star orbits out to 25 light years, supplementary
# to Celestia's stars.dat.

# Because the RECONS survey tabulation has not been updated since 2010,
# the data mostly comes from the SIMBAD database, as well as "The 10 parsec
# sample in the Gaia era" table (https://gruze.org/10pc/). Most parallaxes
# come from Gaia EDR3, which does not provide parallaxes for the brightest
# stars, so for those the Hipparcos parallaxes have been used. In some cases
# where Gaia EDR3 parallaxes exist for one of the component stars, those have
# been used; if two or more components have them, the weighted mean of the
# parallaxes has been used.

# Most brown dwarfs in this file do not have Gaia parallaxes, in which case the
# parallax comes from Kirkpatrick et al. (2021), ApJS 253 (1), 7
# "The Field Substellar Mass Function Based on the Full-sky 20 pc Census of
# 525 L, T, and Y Dwarfs"
# https://iopscience.iop.org/article/10.3847/1538-4365/abd107
# Other sources appear as comments for individual star systems.

# Additional Gliese designations are from Golovin et al. (2022) "The Fifth
# Catalogue of Nearby Stars", https://dc.g-vo.org/CNS5

# Because the magnitude system breaks down for extremely dim stars (such as late
# T or Y dwarfs), they have been given an arbitrary but extremely low AbsMag
# value of 40, and their radii have also been set to a value around ~1 Jupiter
# radius, if their radii are not known.

# Orbits are taken from the Sixth Catalog of Orbits of Visual Binary Stars
# (http://www.astro.gsu.edu/wds/orb6.html), with other sources in the comments
# below.

# For binary orbits, the direction of an orbit's node on the plane of the
# sky is often unknown - the orbits given below will appear correct when
# viewed from Earth, but the true orbit may be tilted either towards or away from
# the Earth.
# For a few orbits the nature of the node is known - these are
# marked with the phrase "fully specified orientation".
# Barycenter positions are based on mass estimates from the papers themselves. The 
# values used are listed below.

Barycenter "Solar System Barycenter:SSB"
{
	RA 0
	Dec 0
	Distance 0
}

0 "Sol:Sun"
{
	OrbitBarycenter "Solar System Barycenter"
	CustomOrbit "vsop87-sun"

	SpectralType "G2V"
	AbsMag 4.83
	Temperature 5772
	BoloCorrection -0.08
	InfoURL "https://en.wikipedia.org/wiki/Sun"

	UniformRotation
	{
	    Period         609.12  # 25.38 days
	    Inclination      7.25
	    AscendingNode   75.77
	    MeridianAngle   23.00  # standard meridian
	}
}

70890 # Proxima Cen
{
	RA  217.39232147
	Dec -62.67607512
	Distance 4.2465 # 768.0665 +/- 0.0499 mas
	SpectralType "M5.5Ve"
	AppMag 11.09
	InfoURL "https://en.wikipedia.org/wiki/Proxima_Centauri"
}

# Akeson et al. (2021), AJ 162 (1), 14
# "Precision Millimeter Astrometry of the α Centauri AB System"
# https://iopscience.iop.org/article/10.3847/1538-3881/abfaff
Barycenter "ALF Cen:Gliese 559"
{
	RA  219.85892215
	Dec -60.83163195
	Distance 4.3441 # 750.81 +/- 0.38 mas
}

71683 # ALF Cen A
{
	OrbitBarycenter "ALF Cen"
	SpectralType "G2V"
	AppMag 0.01
	Radius 847000
	InfoURL "https://en.wikipedia.org/wiki/Alpha_Centauri"
 
	EllipticalOrbit {              # fully specified orientation
		Period          79.762
		SemiMajorAxis    10.66 # mass ratio 1.0788:0.9092
		Eccentricity   0.51947
		Inclination      82.33
		AscendingNode   231.87
		ArgOfPericenter 279.48
		MeanAnomaly     200.56
	}
}

71681 # ALF Cen B
{
	OrbitBarycenter "ALF Cen"
	SpectralType "K1V"
	AppMag 1.33
	Radius 597700
	InfoURL "https://en.wikipedia.org/wiki/Alpha_Centauri"

	EllipticalOrbit {              # fully specified orientation
		Period          79.762
		SemiMajorAxis    12.64 # mass ratio 1.0788:0.9092
		Eccentricity   0.51947
		Inclination      82.33
		AscendingNode   231.87
		ArgOfPericenter  99.48
		MeanAnomaly     200.56
	}
}

87937 # Barnard's Star
{
	RA 269.44850253
	Dec 4.73942005
	Distance 5.9629 # 546.9759 +/- 0.0401 mas
	SpectralType "M4V"
	AppMag 9.511
	InfoURL "https://en.wikipedia.org/wiki/Barnard%27s_Star"
}

# Lazorenko & Sahlmann (2018), A&A 618, A111
# "Updated astrometry and masses of the LUH 16 brown dwarf binary"
# https://arxiv.org/abs/1808.07835
# Magnitudes from Boffin et al. (2014), A&A 561, L4
# "Possible astrometric discovery of a substellar companion to the closest
# binary brown dwarf system WISE J104915.57-531906.1"
# https://www.aanda.org/articles/aa/full_html/2014/01/aa22975-13/aa22975-13.html
# Rotation periods from Apai, Nardiello & Bedin (2021), ApJ 906 (1), 64
# "TESS Observations of the Luhman 16 AB Brown Dwarf System: Rotational Periods,
# Lightcurve Evolution, and Zonal Circulation"
# https://iopscience.iop.org/article/10.3847/1538-4357/abcb97
Barycenter "Luhman 16:WISE 1049-5319:WISE J104915.57-531906.1:GJ 11551"
{
	RA 162.31073787
	Dec -53.318058293
	Distance 6.5029 # 501.557 +/- 0.082 mas
}

"Luhman 16 A:WISE 1049-5319 A:WISE J104915.57-531906.1 A:GJ 11551 A"
{
	OrbitBarycenter "Luhman 16"
	SpectralType "L7.5"
	AppMag 23.25
	Radius 70000 # approx.

	EllipticalOrbit {              # fully specified orientation
		Period           27.54
		SemiMajorAxis    1.636 # mass ratio 33.51J:28.55J
		Eccentricity     0.343
		Inclination     135.68
		AscendingNode   118.64
		ArgOfPericenter 316.22
		MeanAnomaly     127.58
	}

	RotationPeriod 6.94
}

"Luhman 16 B:WISE 1049-5319 B:WISE J104915.57-531906.1 B:GJ 11551 B"
{
	OrbitBarycenter "Luhman 16"
	SpectralType "T0.5"
	AppMag 24.07
	Radius 63000 # approx.

	EllipticalOrbit {              # fully specified orientation
		Period           27.54
		SemiMajorAxis    1.921 # mass ratio 33.51J:28.55J
		Eccentricity     0.343
		Inclination     135.68
		AscendingNode   118.64
		ArgOfPericenter 136.22
		MeanAnomaly     127.58
	}

	RotationPeriod 5.28
}

# parameters from Kirkpatrick et al. (2021)
"WISE 0855-0714:WISE J085510.83-071442.5:GJ 11286"
{
	RA 133.780984
	Dec -7.243932
	Distance 7.430 # 439.0 +/- 2.4 mas
	SpectralType "Y4"
	Radius 60000 # approx.
	AbsMag 40 # extremely low
	InfoURL "https://en.wikipedia.org/wiki/WISE_0855%E2%88%920714"
}

"CN Leo:Gliese 406:Wolf 359"
{
	RA 164.10319031
	Dec 7.00272694
	Distance 7.8558 # 415.1794 +/- 0.0684 mas
	SpectralType "M6V"
	AppMag 13.507
	InfoURL "https://en.wikipedia.org/wiki/Wolf_359"
}

54035 # Lalande 21185
{
	RA 165.83095968
	Dec 35.94865303
	Distance 8.3044 # 392.7529 +/- 0.0321 mas
	SpectralType "M2V"
	AppMag 7.520
	InfoURL "https://en.wikipedia.org/wiki/Lalande_21185"
}

# Parameters from Bond et al. (2017), ApJ 840 (2), 70
# "The Sirius System and Its Astrophysical Puzzles: Hubble Space Telescope and 
# Ground-based Astrometry"
# https://iopscience.iop.org/article/10.3847/1538-4357/aa6af8
Barycenter 32349 "Sirius:Alhabor:ALF CMa:9 CMa:Gliese 244:ADS 5423"
{
	RA 101.28715533
	Dec -16.71611586
	Distance 8.608 # 378.9 +/- 1.4 mas
}

"Sirius A:Alhabor A:ALF CMa A:9 CMa A:Gliese 244 A:ADS 5423 A"
{
	OrbitBarycenter "Sirius"
	SpectralType "A1V"
	AppMag -1.46
	Radius 1192700
	InfoURL "https://en.wikipedia.org/wiki/Sirius#Sirius_A"

	EllipticalOrbit {              # fully specified orientation
		Period         50.1284
		SemiMajorAxis     6.53 # mass ratio 2.063:1.018
		Eccentricity   0.59142
		Inclination     143.15
		AscendingNode   256.59
		ArgOfPericenter  67.30
		MeanAnomaly      38.99
	}
}

"Sirius B:Alhabor B:ALF CMa B:9 CMa B:Gliese 244 B:ADS 5423 B"
{
	OrbitBarycenter "Sirius"
	SpectralType "DA2"
	AppMag 8.44
	Radius 5634
	InfoURL "https://en.wikipedia.org/wiki/Sirius#Sirius_B"

	EllipticalOrbit {              # fully specified orientation
		Period         50.1284
		SemiMajorAxis    13.25 # mass ratio 2.063:1.018
		Eccentricity   0.59142
		Inclination     143.15
		AscendingNode   256.59
		ArgOfPericenter 247.30
		MeanAnomaly      38.99
	}
}

# Distance and radii from same source as orbit
# Rotation periods from Barnes et al. (2017), MNRAS 471 (1), 811
# "Surprisingly different star-spot distributions on the near equal-mass 
# equal-rotation-rate stars in the M dwarf binary GJ 65 AB"
# https://arxiv.org/abs/1706.03979
Barycenter "Gliese 65:Luyten 726-8"
{
	RA 24.77161351 # mass ratio 0.1225:0.1195
	Dec -17.94799520
	Distance 8.728 # 373.70 +/- 2.70 mas
}

"BL Cet:Gliese 65 A:Luyten 726-8 A"
{
 	OrbitBarycenter "Gliese 65"
	SpectralType "M5.5V"
	AppMag 12.7
	Radius 114790
	InfoURL "https://en.wikipedia.org/wiki/Gliese_65"

	EllipticalOrbit {              # fully specified orbit
		Period          26.284
		SemiMajorAxis     2.72 # mass ratio 0.1225:0.1195
		Eccentricity    0.6185
		Inclination     113.55
		AscendingNode    47.80
		ArgOfPericenter 357.54
		MeanAnomaly      21.93
	}

	RotationPeriod 5.832
}

"UV Cet:Gliese 65 B:Luyten 726-8 B"
{
	OrbitBarycenter "Gliese 65"
	SpectralType "M6V"
	AppMag 13.2
	Radius 110600
	InfoURL "https://en.wikipedia.org/wiki/Gliese_65"

	EllipticalOrbit {              # fully specified orbit
		Period          26.284
		SemiMajorAxis     2.79 # mass ratio 0.1225:0.1195
		Eccentricity    0.6185
		Inclination     113.55
		AscendingNode    47.80
		ArgOfPericenter 177.54
		MeanAnomaly      21.93
	}

	RotationPeriod 5.4432
}

92403 # Ross 154
{
	RA 282.45878902
	Dec -23.83709745
	Distance 9.7063 # 336.0266 +/- 0.0317 mas
	SpectralType "M3.5Ve"
	AppMag 10.495
	InfoURL "https://en.wikipedia.org/wiki/Ross_154"
}

